start=new Date('2022-02-01T00:00:00.000Z').valueOf();
sats=[{"GP_ID":"195051984","DECAY_DATE":null,"TIME_SYSTEM":"UTC","PERIOD":"95.592","RA_OF_ASC_NODE":"340.6643","MEAN_MOTION_DDOT":"0.0000000000000","RCS_SIZE":"LARGE","SEMIMAJOR_AXIS":"6925.356","BSTAR":"0.00005663200000","APOAPSIS":"548.259","EPHEMERIS_TYPE":"0","TLE_LINE1":"1 46065U 20055AQ  22031.85345414  .00000562  00000-0  56632-4 0  9994","REV_AT_EPOCH":"8353","LAUNCH_DATE":"2020-08-07","PERIAPSIS":"546.184","MEAN_ANOMALY":"298.0567","ELEMENT_SET_NO":"999","CLASSIFICATION_TYPE":"U","FILE":"3288814","ARG_OF_PERICENTER":"62.0573","OBJECT_ID":"2020-055AQ","SITE":"AFETR","TLE_LINE2":"2 46065  53.0511 340.6643 0001498  62.0573 298.0567 15.06397523 83536","REF_FRAME":"TEME","CENTER_NAME":"EARTH","OBJECT_NAME":"STARLINK-1515","NORAD_CAT_ID":"46065","OBJECT_TYPE":"PAYLOAD","COUNTRY_CODE":"US","EPOCH":"2022-01-31T20:28:58.437696","INCLINATION":"53.0511","MEAN_ELEMENT_THEORY":"SGP4","MEAN_MOTION_DOT":"0.00000562","MEAN_MOTION":"15.06397523","ECCENTRICITY":"0.00014980"},{"SEMIMAJOR_AXIS":"6925.353","APOAPSIS":"548.297","BSTAR":"-0.00001385500000","REV_AT_EPOCH":"8354","EPHEMERIS_TYPE":"0","TLE_LINE1":"1 46066U 20055AR  22031.85808324 -.00000488  00000-0 -13855-4 0  9998","PERIAPSIS":"546.139","LAUNCH_DATE":"2020-08-07","GP_ID":"195051234","DECAY_DATE":null,"PERIOD":"95.592","TIME_SYSTEM":"UTC","MEAN_MOTION_DDOT":"0.0000000000000","RA_OF_ASC_NODE":"340.6482","RCS_SIZE":"LARGE","NORAD_CAT_ID":"46066","CENTER_NAME":"EARTH","OBJECT_NAME":"STARLINK-1525","OBJECT_TYPE":"PAYLOAD","COUNTRY_CODE":"US","MEAN_MOTION_DOT":"-0.00000488","EPOCH":"2022-01-31T20:35:38.391936","INCLINATION":"53.0550","MEAN_ELEMENT_THEORY":"SGP4","ECCENTRICITY":"0.00015580","MEAN_MOTION":"15.06398635","MEAN_ANOMALY":"293.0576","CLASSIFICATION_TYPE":"U","FILE":"3288814","ELEMENT_SET_NO":"999","ARG_OF_PERICENTER":"67.0577","OBJECT_ID":"2020-055AR","REF_FRAME":"TEME","SITE":"AFETR","TLE_LINE2":"2 46066  53.0550 340.6482 0001558  67.0577 293.0576 15.06398635 83548"},{"GP_ID":"195050985","DECAY_DATE":null,"PERIOD":"95.592","TIME_SYSTEM":"UTC","MEAN_MOTION_DDOT":"0.0000000000000","RA_OF_ASC_NODE":"340.6330","RCS_SIZE":"LARGE","SEMIMAJOR_AXIS":"6925.326","APOAPSIS":"548.383","BSTAR":"0.00005457200000","REV_AT_EPOCH":"8355","EPHEMERIS_TYPE":"0","TLE_LINE1":"1 46067U 20055AS  22031.86176659  .00000531  00000-0  54572-4 0  9997","PERIAPSIS":"545.998","LAUNCH_DATE":"2020-08-07","MEAN_ANOMALY":"297.3848","CLASSIFICATION_TYPE":"U","FILE":"3288814","ELEMENT_SET_NO":"999","ARG_OF_PERICENTER":"62.7316","OBJECT_ID":"2020-055AS","REF_FRAME":"TEME","SITE":"AFETR","TLE_LINE2":"2 46067  53.0557 340.6330 0001722  62.7316 297.3848 15.06407390 83553","NORAD_CAT_ID":"46067","CENTER_NAME":"EARTH","OBJECT_NAME":"STARLINK-1529","OBJECT_TYPE":"PAYLOAD","COUNTRY_CODE":"US","MEAN_MOTION_DOT":"0.00000531","EPOCH":"2022-01-31T20:40:56.633376","MEAN_ELEMENT_THEORY":"SGP4","INCLINATION":"53.0557","ECCENTRICITY":"0.00017220","MEAN_MOTION":"15.06407390"},{"REV_AT_EPOCH":"8354","EPHEMERIS_TYPE":"0","TLE_LINE1":"1 46068U 20055AT  22031.80648303  .00000195  00000-0  32011-4 0  9992","PERIAPSIS":"546.065","LAUNCH_DATE":"2020-08-07","SEMIMAJOR_AXIS":"6925.391","APOAPSIS":"548.446","BSTAR":"0.00003201100000","MEAN_MOTION_DDOT":"0.0000000000000","RA_OF_ASC_NODE":"340.8706","RCS_SIZE":"LARGE","GP_ID":"195052236","DECAY_DATE":null,"TIME_SYSTEM":"UTC","PERIOD":"95.593","MEAN_MOTION_DOT":"0.00000195","EPOCH":"2022-01-31T19:21:20.133792","INCLINATION":"53.0563","MEAN_ELEMENT_THEORY":"SGP4","ECCENTRICITY":"0.00017190","MEAN_MOTION":"15.06386175","NORAD_CAT_ID":"46068","CENTER_NAME":"EARTH","OBJECT_NAME":"STARLINK-1532","OBJECT_TYPE":"PAYLOAD","COUNTRY_CODE":"US","ARG_OF_PERICENTER":"68.3493","OBJECT_ID":"2020-055AT","REF_FRAME":"TEME","SITE":"AFETR","TLE_LINE2":"2 46068  53.0563 340.8706 0001719  68.3493 291.7679 15.06386175 83540","MEAN_ANOMALY":"291.7679","CLASSIFICATION_TYPE":"U","FILE":"3288814","ELEMENT_SET_NO":"999"},{"MEAN_MOTION_DDOT":"0.0000000000000","RA_OF_ASC_NODE":"341.9956","RCS_SIZE":"LARGE","DECAY_DATE":null,"GP_ID":"195052484","TIME_SYSTEM":"UTC","PERIOD":"95.593","REV_AT_EPOCH":"8351","EPHEMERIS_TYPE":"0","TLE_LINE1":"1 46069U 20055AU  22031.55583900 -.00002087  00000-0 -12126-3 0  9994","PERIAPSIS":"546.080","LAUNCH_DATE":"2020-08-07","SEMIMAJOR_AXIS":"6925.385","APOAPSIS":"548.420","BSTAR":"-0.00012126000000","ARG_OF_PERICENTER":"72.4094","OBJECT_ID":"2020-055AU","REF_FRAME":"TEME","SITE":"AFETR","TLE_LINE2":"2 46069  53.0543 341.9956 0001689  72.4094 287.7079 15.06388154 83512","MEAN_ANOMALY":"287.7079","CLASSIFICATION_TYPE":"U","FILE":"3288814","ELEMENT_SET_NO":"999","MEAN_MOTION_DOT":"-0.00002087","EPOCH":"2022-01-31T13:20:24.489600","INCLINATION":"53.0543","MEAN_ELEMENT_THEORY":"SGP4","ECCENTRICITY":"0.00016890","MEAN_MOTION":"15.06388154","NORAD_CAT_ID":"46069","CENTER_NAME":"EARTH","OBJECT_NAME":"STARLINK-1533","OBJECT_TYPE":"PAYLOAD","COUNTRY_CODE":"US"},{"COUNTRY_CODE":"US","OBJECT_TYPE":"PAYLOAD","NORAD_CAT_ID":"46070","OBJECT_NAME":"STARLINK-1536","CENTER_NAME":"EARTH","ECCENTRICITY":"0.00016470","MEAN_MOTION":"15.06395388","MEAN_MOTION_DOT":"0.00000450","MEAN_ELEMENT_THEORY":"SGP4","INCLINATION":"53.0551","EPOCH":"2022-01-31T20:03:47.617920","FILE":"3288814","CLASSIFICATION_TYPE":"U","ELEMENT_SET_NO":"999","MEAN_ANOMALY":"299.1230","REF_FRAME":"TEME","TLE_LINE2":"2 46070  53.0551 340.7359 0001647  60.9924 299.1230 15.06395388 83552","SITE":"AFETR","OBJECT_ID":"2020-055AV","ARG_OF_PERICENTER":"60.9924","APOAPSIS":"548.368","BSTAR":"0.00004914100000","SEMIMAJOR_AXIS":"6925.363","PERIAPSIS":"546.087","LAUNCH_DATE":"2020-08-07","REV_AT_EPOCH":"8355","TLE_LINE1":"1 46070U 20055AV  22031.83596780  .00000450  00000-0  49141-4 0  9995","EPHEMERIS_TYPE":"0","TIME_SYSTEM":"UTC","PERIOD":"95.592","GP_ID":"195050735","DECAY_DATE":null,"RCS_SIZE":"LARGE","MEAN_MOTION_DDOT":"0.0000000000000","RA_OF_ASC_NODE":"340.7359"},{"PERIOD":"95.592","TIME_SYSTEM":"UTC","GP_ID":"195051485","DECAY_DATE":null,"RCS_SIZE":"LARGE","RA_OF_ASC_NODE":"341.8535","MEAN_MOTION_DDOT":"0.0000000000000","BSTAR":"0.00012441000000","APOAPSIS":"548.414","SEMIMAJOR_AXIS":"6925.354","LAUNCH_DATE":"2020-08-07","PERIAPSIS":"546.024","EPHEMERIS_TYPE":"0","TLE_LINE1":"1 46071U 20055AW  22031.58901249  .00001572  00000-0  12441-3 0  9996","REV_AT_EPOCH":"8351","ELEMENT_SET_NO":"999","CLASSIFICATION_TYPE":"U","FILE":"3288814","MEAN_ANOMALY":"293.6058","SITE":"AFETR","TLE_LINE2":"2 46071  53.0545 341.8535 0001726  66.5112 293.6058 15.06398250 83517","REF_FRAME":"TEME","ARG_OF_PERICENTER":"66.5112","OBJECT_ID":"2020-055AW","OBJECT_TYPE":"PAYLOAD","COUNTRY_CODE":"US","CENTER_NAME":"EARTH","OBJECT_NAME":"STARLINK-1538","NORAD_CAT_ID":"46071","MEAN_MOTION":"15.06398250","ECCENTRICITY":"0.00017260","EPOCH":"2022-01-31T14:08:10.679136","INCLINATION":"53.0545","MEAN_ELEMENT_THEORY":"SGP4","MEAN_MOTION_DOT":"0.00001572"},{"MEAN_MOTION":"15.06403609","ECCENTRICITY":"0.00018370","EPOCH":"2022-01-31T19:30:34.801056","MEAN_ELEMENT_THEORY":"SGP4","INCLINATION":"53.0578","MEAN_MOTION_DOT":"0.00001336","OBJECT_TYPE":"PAYLOAD","COUNTRY_CODE":"US","CENTER_NAME":"EARTH","OBJECT_NAME":"STARLINK-1539","NORAD_CAT_ID":"46072","SITE":"AFETR","TLE_LINE2":"2 46072  53.0578 340.8449 0001837  56.7929 303.3235 15.06403609 83530","REF_FRAME":"TEME","ARG_OF_PERICENTER":"56.7929","OBJECT_ID":"2020-055AX","ELEMENT_SET_NO":"999","CLASSIFICATION_TYPE":"U","FILE":"3288814","MEAN_ANOMALY":"303.3235","LAUNCH_DATE":"2020-08-07","PERIAPSIS":"545.930","EPHEMERIS_TYPE":"0","TLE_LINE1":"1 46072U 20055AX  22031.81290279  .00001336  00000-0  10856-3 0  9993","REV_AT_EPOCH":"8353","BSTAR":"0.00010856000000","APOAPSIS":"548.475","SEMIMAJOR_AXIS":"6925.337","RCS_SIZE":"LARGE","RA_OF_ASC_NODE":"340.8449","MEAN_MOTION_DDOT":"0.0000000000000","PERIOD":"95.592","TIME_SYSTEM":"UTC","DECAY_DATE":null,"GP_ID":"195051737"},{"APOAPSIS":"548.250","BSTAR":"0.00000859030000","SEMIMAJOR_AXIS":"6925.370","PERIAPSIS":"546.220","LAUNCH_DATE":"2020-08-07","REV_AT_EPOCH":"8355","EPHEMERIS_TYPE":"0","TLE_LINE1":"1 46073U 20055AY  22031.89494638 -.00000154  00000-0  85903-5 0  9992","TIME_SYSTEM":"UTC","PERIOD":"95.593","DECAY_DATE":null,"GP_ID":"195051985","RCS_SIZE":"LARGE","MEAN_MOTION_DDOT":"0.0000000000000","RA_OF_ASC_NODE":"340.4900","OBJECT_TYPE":"PAYLOAD","COUNTRY_CODE":"US","NORAD_CAT_ID":"46073","CENTER_NAME":"EARTH","OBJECT_NAME":"STARLINK-1542","ECCENTRICITY":"0.00014660","MEAN_MOTION":"15.06393037","MEAN_MOTION_DOT":"-0.00000154","EPOCH":"2022-01-31T21:28:43.367232","INCLINATION":"53.0551","MEAN_ELEMENT_THEORY":"SGP4","CLASSIFICATION_TYPE":"U","FILE":"3288814","ELEMENT_SET_NO":"999","MEAN_ANOMALY":"301.6872","REF_FRAME":"TEME","SITE":"AFETR","TLE_LINE2":"2 46073  53.0551 340.4900 0001466  58.4260 301.6872 15.06393037 83558","ARG_OF_PERICENTER":"58.4260","OBJECT_ID":"2020-055AY"},{"NORAD_CAT_ID":"46074","CENTER_NAME":"EARTH","OBJECT_NAME":"STARLINK-1549","OBJECT_TYPE":"PAYLOAD","COUNTRY_CODE":"US","MEAN_MOTION_DOT":"-0.00002952","EPOCH":"2022-01-31T21:07:31.665504","MEAN_ELEMENT_THEORY":"SGP4","INCLINATION":"53.0550","ECCENTRICITY":"0.00016650","MEAN_MOTION":"15.06365433","MEAN_ANOMALY":"326.0379","CLASSIFICATION_TYPE":"U","FILE":"3288814","ELEMENT_SET_NO":"999","ARG_OF_PERICENTER":"34.0716","OBJECT_ID":"2020-055AZ","REF_FRAME":"TEME","SITE":"AFETR","TLE_LINE2":"2 46074  53.0550 340.5439 0001665  34.0716 326.0379 15.06365433 83544","SEMIMAJOR_AXIS":"6925.455","APOAPSIS":"548.473","BSTAR":"-0.00017954000000","REV_AT_EPOCH":"8354","EPHEMERIS_TYPE":"0","TLE_LINE1":"1 46074U 20055AZ  22031.88022761 -.00002952  00000-0 -17954-3 0  9994","PERIAPSIS":"546.166","LAUNCH_DATE":"2020-08-07","DECAY_DATE":null,"GP_ID":"195051235","PERIOD":"95.594","TIME_SYSTEM":"UTC","MEAN_MOTION_DDOT":"0.0000000000000","RA_OF_ASC_NODE":"340.5439","RCS_SIZE":"LARGE"}];
